{"type": "FeatureCollection", "features": [{"type": "Feature", "properties": {"norad_id": 66514, "name": "SENTINEL-6B", "group": "last-30-days", "lat": 17.210828061747055, "lon": -33.459130666143515, "alt_km": 1336.7592209029935, "timestamp": "2025-12-16T13:52:36.285721+00:00", "meta": {"OBJECT_NAME": "SENTINEL-6B", "OBJECT_ID": "2025-264A", "EPOCH": "2025-12-12T06:01:21.430272", "MEAN_MOTION": 12.81479576, "ECCENTRICITY": 0.0007847, "INCLINATION": 66.0385, "RA_OF_ASC_NODE": 163.4531, "ARG_OF_PERICENTER": 270.1745, "MEAN_ANOMALY": 89.8371, "EPHEMERIS_TYPE": 0, "CLASSIFICATION_TYPE": "U", "NORAD_CAT_ID": 66514, "ELEMENT_SET_NO": 999, "REV_AT_EPOCH": 322, "BSTAR": 0.00018864317, "MEAN_MOTION_DOT": -1.7e-07, "MEAN_MOTION_DDOT": 0}, "tle": {"line1": "1 66514U 25264A   25346.25094248 -.00000017  00000+0  18864-3 0  9993", "line2": "2 66514  66.0385 163.4531 0007847 270.1745  89.8371 12.81479576  3220"}}, "geometry": {"type": "Point", "coordinates": [-33.459130666143515, 17.210828061747055]}}, {"type": "Feature", "properties": {"norad_id": 66516, "name": "STARLINK-35924", "group": "last-30-days", "lat": 4.575920955578103, "lon": -152.9282245536882, "alt_km": 443.08456277450205, "timestamp": "2025-12-16T13:52:36.285777+00:00", "meta": {"OBJECT_NAME": "STARLINK-35924", "OBJECT_ID": "2025-265A", "EPOCH": "2025-12-15T22:00:01.999584", "MEAN_MOTION": 15.40699631, "ECCENTRICITY": 0.00014271, "INCLINATION": 43.001, "RA_OF_ASC_NODE": 35.8116, "ARG_OF_PERICENTER": 255.3019, "MEAN_ANOMALY": 204.4608, "EPHEMERIS_TYPE": 0, "CLASSIFICATION_TYPE": "U", "NORAD_CAT_ID": 66516, "ELEMENT_SET_NO": 999, "REV_AT_EPOCH": 548, "BSTAR": 0.0003478071, "MEAN_MOTION_DOT": 0.00014252, "MEAN_MOTION_DDOT": 0}, "tle": {"line1": "1 66516U 25265A   25349.91668981  .00014252  00000+0  34781-3 0  9994", "line2": "2 66516  43.0010  35.8116 0001427 255.3019 204.4608 15.40699631  5482"}}, "geometry": {"type": "Point", "coordinates": [-152.9282245536882, 4.575920955578103]}}, {"type": "Feature", "properties": {"norad_id": 66517, "name": "STARLINK-35937", "group": "last-30-days", "lat": -5.997196483663453, "lon": 25.093295096679235, "alt_km": 414.75462485158187, "timestamp": "2025-12-16T13:52:36.285794+00:00", "meta": {"OBJECT_NAME": "STARLINK-35937", "OBJECT_ID": "2025-265B", "EPOCH": "2025-12-15T13:10:50.395296", "MEAN_MOTION": 15.5058998, "ECCENTRICITY": 0.00014114, "INCLINATION": 43.0002, "RA_OF_ASC_NODE": 37.5875, "ARG_OF_PERICENTER": 274.846, "MEAN_ANOMALY": 85.2239, "EPHEMERIS_TYPE": 0, "CLASSIFICATION_TYPE": "U", "NORAD_CAT_ID": 66517, "ELEMENT_SET_NO": 999, "REV_AT_EPOCH": 419, "BSTAR": 0.0012329825, "MEAN_MOTION_DOT": 0.00072694, "MEAN_MOTION_DDOT": 0}, "tle": {"line1": "1 66517U 25265B   25349.54919439  .00072694  00000+0  12330-2 0  9990", "line2": "2 66517  43.0002  37.5875 0001411 274.8460  85.2239 15.50589980  4192"}}, "geometry": {"type": "Point", "coordinates": [25.093295096679235, -5.997196483663453]}}, {"type": "Feature", "properties": {"norad_id": 66518, "name": "STARLINK-35962", "group": "last-30-days", "lat": -4.850725100949706, "lon": 26.33479537100707, "alt_km": 413.20752911910404, "timestamp": "2025-12-16T13:52:36.285808+00:00", "meta": {"OBJECT_NAME": "STARLINK-35962", "OBJECT_ID": "2025-265C", "EPOCH": "2025-12-14T10:53:57.808320", "MEAN_MOTION": 15.50609594, "ECCENTRICITY": 0.00017695, "INCLINATION": 43.0014, "RA_OF_ASC_NODE": 43.9914, "ARG_OF_PERICENTER": 290.7607, "MEAN_ANOMALY": 69.3063, "EPHEMERIS_TYPE": 0, "CLASSIFICATION_TYPE": "U", "NORAD_CAT_ID": 66518, "ELEMENT_SET_NO": 999, "REV_AT_EPOCH": 402, "BSTAR": 0.0018445082, "MEAN_MOTION_DOT": 0.00109513, "MEAN_MOTION_DDOT": 0}, "tle": {"line1": "1 66518U 25265C   25348.45414130  .00109513  00000+0  18445-2 0  9992", "line2": "2 66518  43.0014  43.9914 0001769 290.7607  69.3063 15.50609594  4021"}}, "geometry": {"type": "Point", "coordinates": [26.33479537100707, -4.850725100949706]}}, {"type": "Feature", "properties": {"norad_id": 66519, "name": "STARLINK-35931", "group": "last-30-days", "lat": -3.193815483595221, "lon": 28.123655303359463, "alt_km": 413.2244123562605, "timestamp": "2025-12-16T13:52:36.285820+00:00", "meta": {"OBJECT_NAME": "STARLINK-35931", "OBJECT_ID": "2025-265D", "EPOCH": "2025-12-15T13:09:50.374080", "MEAN_MOTION": 15.50650168, "ECCENTRICITY": 0.00049678, "INCLINATION": 43.0015, "RA_OF_ASC_NODE": 37.5821, "ARG_OF_PERICENTER": 281.452, "MEAN_ANOMALY": 78.5782, "EPHEMERIS_TYPE": 0, "CLASSIFICATION_TYPE": "U", "NORAD_CAT_ID": 66519, "ELEMENT_SET_NO": 999, "REV_AT_EPOCH": 419, "BSTAR": 0.0013394698, "MEAN_MOTION_DOT": 0.00079268, "MEAN_MOTION_DDOT": 0}, "tle": {"line1": "1 66519U 25265D   25349.54849970  .00079268  00000+0  13395-2 0  9990", "line2": "2 66519  43.0015  37.5821 0004967 281.4520  78.5782 15.50650168  4194"}}, "geometry": {"type": "Point", "coordinates": [28.123655303359463, -3.193815483595221]}}, {"type": "Feature", "properties": {"norad_id": 66520, "name": "STARLINK-35952", "group": "last-30-days", "lat": -27.718776562195668, "lon": -113.8011636663153, "alt_km": 446.0390112736495, "timestamp": "2025-12-16T13:52:36.285832+00:00", "meta": {"OBJECT_NAME": "STARLINK-35952", "OBJECT_ID": "2025-265E", "EPOCH": "2025-12-15T22:00:01.999584", "MEAN_MOTION": 15.40689902, "ECCENTRICITY": 0.00010221, "INCLINATION": 43.0008, "RA_OF_ASC_NODE": 35.69, "ARG_OF_PERICENTER": 256.8364, "MEAN_ANOMALY": 252.7056, "EPHEMERIS_TYPE": 0, "CLASSIFICATION_TYPE": "U", "NORAD_CAT_ID": 66520, "ELEMENT_SET_NO": 999, "REV_AT_EPOCH": 550, "BSTAR": 0.00026163244, "MEAN_MOTION_DOT": 0.00010637, "MEAN_MOTION_DDOT": 0}, "tle": {"line1": "1 66520U 25265E   25349.91668981  .00010637  00000+0  26163-3 0  9997", "line2": "2 66520  43.0008  35.6900 0001022 256.8364 252.7056 15.40689902  5509"}}, "geometry": {"type": "Point", "coordinates": [-113.8011636663153, -27.718776562195668]}}, {"type": "Feature", "properties": {"norad_id": 66521, "name": "STARLINK-35915", "group": "last-30-days", "lat": -0.9588139912003721, "lon": 30.51729327367608, "alt_km": 413.00003424202987, "timestamp": "2025-12-16T13:52:36.285844+00:00", "meta": {"OBJECT_NAME": "STARLINK-35915", "OBJECT_ID": "2025-265F", "EPOCH": "2025-12-15T13:08:56.619456", "MEAN_MOTION": 15.50613283, "ECCENTRICITY": 0.00041789, "INCLINATION": 42.9978, "RA_OF_ASC_NODE": 37.5756, "ARG_OF_PERICENTER": 292.8181, "MEAN_ANOMALY": 67.2238, "EPHEMERIS_TYPE": 0, "CLASSIFICATION_TYPE": "U", "NORAD_CAT_ID": 66521, "ELEMENT_SET_NO": 999, "REV_AT_EPOCH": 419, "BSTAR": 0.0010696382, "MEAN_MOTION_DOT": 0.00063008, "MEAN_MOTION_DDOT": 0}, "tle": {"line1": "1 66521U 25265F   25349.54787754  .00063008  00000+0  10696-2 0  9990", "line2": "2 66521  42.9978  37.5756 0004178 292.8181  67.2238 15.50613283  4191"}}, "geometry": {"type": "Point", "coordinates": [30.51729327367608, -0.9588139912003721]}}, {"type": "Feature", "properties": {"norad_id": 66522, "name": "STARLINK-35946", "group": "last-30-days", "lat": 0.5164225342435192, "lon": 32.09705295883932, "alt_km": 413.820440708706, "timestamp": "2025-12-16T13:52:36.285854+00:00", "meta": {"OBJECT_NAME": "STARLINK-35946", "OBJECT_ID": "2025-265G", "EPOCH": "2025-12-15T13:08:21.967008", "MEAN_MOTION": 15.50600216, "ECCENTRICITY": 0.00023385, "INCLINATION": 43.0014, "RA_OF_ASC_NODE": 37.5738, "ARG_OF_PERICENTER": 283.487, "MEAN_ANOMALY": 76.573, "EPHEMERIS_TYPE": 0, "CLASSIFICATION_TYPE": "U", "NORAD_CAT_ID": 66522, "ELEMENT_SET_NO": 999, "REV_AT_EPOCH": 419, "BSTAR": 0.00093603782, "MEAN_MOTION_DOT": 0.00055002, "MEAN_MOTION_DDOT": 0}, "tle": {"line1": "1 66522U 25265G   25349.54747647  .00055002  00000+0  93604-3 0  9994", "line2": "2 66522  43.0014  37.5738 0002338 283.4870  76.5730 15.50600216  4194"}}, "geometry": {"type": "Point", "coordinates": [32.09705295883932, 0.5164225342435192]}}, {"type": "Feature", "properties": {"norad_id": 66523, "name": "STARLINK-35969", "group": "last-30-days", "lat": 2.0556641914049876, "lon": 33.74326274877285, "alt_km": 412.52764261434186, "timestamp": "2025-12-16T13:52:36.285865+00:00", "meta": {"OBJECT_NAME": "STARLINK-35969", "OBJECT_ID": "2025-265H", "EPOCH": "2025-12-15T03:51:19.602720", "MEAN_MOTION": 15.50616312, "ECCENTRICITY": 0.00035212, "INCLINATION": 42.9978, "RA_OF_ASC_NODE": 39.831, "ARG_OF_PERICENTER": 299.9659, "MEAN_ANOMALY": 60.0851, "EPHEMERIS_TYPE": 0, "CLASSIFICATION_TYPE": "U", "NORAD_CAT_ID": 66523, "ELEMENT_SET_NO": 999, "REV_AT_EPOCH": 413, "BSTAR": 0.0010201167, "MEAN_MOTION_DOT": 0.00060054, "MEAN_MOTION_DDOT": 0}, "tle": {"line1": "1 66523U 25265H   25349.16064355  .00060054  00000+0  10201-2 0  9995", "line2": "2 66523  42.9978  39.8310 0003521 299.9659  60.0851 15.50616312  4135"}}, "geometry": {"type": "Point", "coordinates": [33.74326274877285, 2.0556641914049876]}}, {"type": "Feature", "properties": {"norad_id": 66524, "name": "STARLINK-35687", "group": "last-30-days", "lat": -12.259818827361311, "lon": -134.57875574111637, "alt_km": 444.94710094825405, "timestamp": "2025-12-16T13:52:36.285876+00:00", "meta": {"OBJECT_NAME": "STARLINK-35687", "OBJECT_ID": "2025-265J", "EPOCH": "2025-12-15T22:00:01.999584", "MEAN_MOTION": 15.40691197, "ECCENTRICITY": 0.00016088, "INCLINATION": 43.001, "RA_OF_ASC_NODE": 35.7495, "ARG_OF_PERICENTER": 268.2275, "MEAN_ANOMALY": 216.4303, "EPHEMERIS_TYPE": 0, "CLASSIFICATION_TYPE": "U", "NORAD_CAT_ID": 66524, "ELEMENT_SET_NO": 999, "REV_AT_EPOCH": 550, "BSTAR": 0.00028142529, "MEAN_MOTION_DOT": 0.00011466, "MEAN_MOTION_DDOT": 0}, "tle": {"line1": "1 66524U 25265J   25349.91668981  .00011466  00000+0  28143-3 0  9992", "line2": "2 66524  43.0010  35.7495 0001608 268.2275 216.4303 15.40691197  5505"}}, "geometry": {"type": "Point", "coordinates": [-134.57875574111637, -12.259818827361311]}}]}